GSAT0222 (GALILEO 26)   
1 43565U 18060B   23150.35991941 -.00000075  00000+0  00000+0 0  9991
2 43565  57.2699  11.8126 0002462 333.2608  26.7807  1.70475666 30220
GSAT0219 (GALILEO 23)   
1 43566U 18060C   23149.99383825 -.00000076  00000+0  00000+0 0  9997
2 43566  57.2704  11.8246 0002249 340.3659  19.6788  1.70475705 30198
GSAT0220 (GALILEO 24)   
1 43567U 18060D   23150.21419213 -.00000075  00000+0  00000+0 0  9995
2 43567  57.2703  11.8197 0002185 331.5134  28.5285  1.70475731 30170
BEIDOU-3 M13            
1 43622U 18072A   23150.35741725  .00000016  00000+0  00000+0 0  9995
2 43622  55.7044  99.7137 0008366 297.5662  62.3186  1.86231618 31916
BEIDOU-3 M14            
1 43623U 18072B   23149.14897730  .00000021  00000+0  00000+0 0  9995
2 43623  55.7055  99.7467 0006381 318.5609  41.3631  1.86231689 31881
GPS BIII-1              
1 43873U 18109A   23150.86148057  .00000093  00000+0  00000+0 0  9994
2 43873  55.1694 136.1764 0024332 194.8438 290.4213  2.00564407 32695
METEOR-M2 2             
1 44387U 19038A   23151.44602439  .00000039  00000+0  36391-4 0  9998
2 44387  98.7747 115.3852 0001612  33.9866 326.1415 14.23783530202923
GPS BIII-2              
1 44506U 19056A   23150.63617045 -.00000077  00000+0  00000+0 0  9996
2 44506  55.7997  15.2688 0032432 182.9738  40.4250  2.00564335 27737
BEIDOU-3 M23            
1 44542U 19061A   23150.06538019  .00000032  00000+0  00000+0 0  9992
2 44542  54.5007 220.3543 0007389 338.8285  21.2116  1.86231278 25047
BEIDOU-3 M24            
1 44543U 19061B   23150.73521462  .00000042  00000+0  00000+0 0  9992
2 44543  54.4989 220.3012 0004954 319.7857  41.1099  1.86231721 25061
BEIDOU-3 M21            
1 44793U 19078A   23150.44732922 -.00000067  00000+0  00000+0 0  9998
2 44793  54.8151 338.6518 0006812  26.6843 333.3730  1.86232280 23901
BEIDOU-3 M22            
1 44794U 19078B   23148.96728843 -.00000071  00000+0  00000+0 0  9995
2 44794  54.7901 338.6871 0004680  26.1556 333.8898  1.86232804 23882
ELEKTRO-L 3             
1 44903U 19095A   23151.41438448 -.00000077  00000+0  00000+0 0  9995
2 44903   0.0636  83.7809 0001152  20.6951   9.4268  1.00270744 12539
GPS BIII-3              
1 45854U 20041A   23150.65325308 -.00000045  00000+0  00000+0 0  9994
2 45854  55.8014  72.5457 0032065 186.7686 352.2136  2.00565666 21707
GPS BIII-4              
1 46826U 20078A   23150.86693112 -.00000021  00000+0  00000+0 0  9992
2 46826  54.3595 255.9862 0032214 191.3250 117.5378  2.00562885 19175
GSAT0223 (GALILEO 27)   
1 49809U 21116A   23147.42966139 -.00000086  00000+0  00000+0 0  9991
2 49809  57.2613  11.7911 0001118 119.2738  62.0651  1.70475932  9140
GSAT0224 (GALILEO 28)   
1 49810U 21116B   23141.97688405 -.00000102  00000+0  00000+0 0  9993
2 49810  57.2610  11.9356 0001283  83.1877 104.1384  1.70475845  9076
GOES 18                 
1 51850U 22021A   23151.41696946  .00000116  00000+0  00000+0 0  9999
2 51850   0.0199  80.9441 0000563 331.0222 209.7858  1.00270537  4641
